SL-16 R/B               
1 22803U 93059B   26099.03853476  .00000254  00000+0  14954-3 0  9999
2 22803  70.9902 307.1289 0016749 171.3100 188.8317 14.17237004683837
ARIANE 40 R/B           
1 22830U 93061H   26099.21435096  .00000201  00000+0  89256-4 0  9996
2 22830  98.4864 167.4913 0010665 187.5875 172.5150 14.32878427698477
COSMOS 2278             
1 23087U 94023A   26099.22106659  .00000171  00000+0  11400-3 0  9992
2 23087  71.0502 111.2210 0009516 329.2915  30.7649 14.14376202649128
SL-16 R/B               
1 23088U 94023B   26099.18305803 -.00000054  00000+0 -34784-5 0  9994
2 23088  71.0032   6.8485 0005657 259.5774 100.4712 14.15020470650403
SL-16 R/B               
1 23343U 94074B   26099.02048993  .00000376  00000+0  56908-4 0  9997
2 23343  97.7062 128.6036 0007918 117.1969 272.8631 14.79444126691730
SL-16 R/B               
1 23405U 94077B   26098.94078644 -.00000131  00000+0 -42513-4 0  9993
2 23405  70.9813 288.8466 0001356 178.9375 181.1751 14.15566810620516
ARIANE 40+ R/B          
1 23561U 95021B   26099.17934426  .00000283  00000+0  10414-3 0  9991
2 23561  98.4447 170.2410 0007636  57.8865 327.9474 14.39795809623632
SL-16 R/B               
1 23705U 95058B   26099.30260294  .00000208  00000+0  13058-3 0  9995
2 23705  71.0186 115.9852 0010458  69.8135 290.4111 14.15499079572183
SL-16 R/B               
1 24298U 96051B   26099.26492140  .00000054  00000+0  56019-4 0  9993
2 24298  70.7579 110.5233 0012838  96.9946 263.2634 14.12424291525965
ORBVIEW 2 (SEASTAR)     
1 24883U 97037A   26099.29565928  .00000272  00000+0  11078-3 0  9993
2 24883  98.8621 264.4270 0001799 359.9316   0.1868 14.35517688512861
SL-16 R/B               
1 25400U 98043G   26099.11224746  .00000053  00000+0  41210-4 0  9997
2 25400  98.8302  52.7011 0008813 288.7293  71.2929 14.26057145443329
SL-16 R/B               
1 25407U 98045B   26099.29848949  .00000276  00000+0  16350-3 0  9995
2 25407  71.0087 117.2056 0008493 324.1499  35.9053 14.16195833431432
ISS (ZARYA)             
1 25544U 98067A   26098.97303557  .00006802  00000+0  13221-3 0  9991
2 25544  51.6330 282.6294 0006364 289.6160  70.4141 15.48838774561020
CZ-4B R/B               
1 25732U 99025C   26099.06556976  .00000031  00000+0  35733-4 0  9992
2 25732  98.6563 142.6186 0036005 257.0648 132.5520 14.18271662392473
OKEAN-O                 
1 25860U 99039A   26099.13607542  .00000527  00000+0  75837-4 0  9992
2 25860  97.9381 158.7084 0000996 111.3812 248.7507 14.80386334438899
SL-16 R/B               
1 25861U 99039B   26099.08736791  .00000476  00000+0  67003-4 0  9995
2 25861  97.9902 158.1286 0015417 154.2235 205.9749 14.81775581441362
DELTA 2 R/B             
1 25876U 99041E   26099.23535388  .00000751  00000+0  16061-3 0  9993
2 25876  51.7606 179.2558 0502617  78.5060 287.1853 14.11908328367343
