[{"OBJECT_NAME":"SL-16 R/B","OBJECT_ID":"1993-059B","EPOCH":"2026-04-09T00:55:29.403264","MEAN_MOTION":14.17237004,"ECCENTRICITY":0.00167492,"INCLINATION":70.9902,"RA_OF_ASC_NODE":307.1289,"ARG_OF_PERICENTER":171.31,"MEAN_ANOMALY":188.8317,"EPHEMERIS_TYPE":0,"CLASSIFICATION_TYPE":"U","NORAD_CAT_ID":22803,"ELEMENT_SET_NO":999,"REV_AT_EPOCH":68383,"BSTAR":0.00014953712,"MEAN_MOTION_DOT":2.54e-6,"MEAN_MOTION_DDOT":0},{"OBJECT_NAME":"ARIANE 40 R/B","OBJECT_ID":"1993-061H","EPOCH":"2026-04-09T05:08:39.922944","MEAN_MOTION":14.32878427,"ECCENTRICITY":0.00106657,"INCLINATION":98.4864,"RA_OF_ASC_NODE":167.4913,"ARG_OF_PERICENTER":187.5875,"MEAN_ANOMALY":172.515,"EPHEMERIS_TYPE":0,"CLASSIFICATION_TYPE":"U","NORAD_CAT_ID":22830,"ELEMENT_SET_NO":999,"REV_AT_EPOCH":69847,"BSTAR":8.9255732e-5,"MEAN_MOTION_DOT":2.01e-6,"MEAN_MOTION_DDOT":0},{"OBJECT_NAME":"COSMOS 2278","OBJECT_ID":"1994-023A","EPOCH":"2026-04-09T05:18:20.153376","MEAN_MOTION":14.14376202,"ECCENTRICITY":0.00095167,"INCLINATION":71.0502,"RA_OF_ASC_NODE":111.221,"ARG_OF_PERICENTER":329.2915,"MEAN_ANOMALY":30.7649,"EPHEMERIS_TYPE":0,"CLASSIFICATION_TYPE":"U","NORAD_CAT_ID":23087,"ELEMENT_SET_NO":999,"REV_AT_EPOCH":64912,"BSTAR":0.00011399953,"MEAN_MOTION_DOT":1.71e-6,"MEAN_MOTION_DDOT":0},{"OBJECT_NAME":"SL-16 R/B","OBJECT_ID":"1994-023B","EPOCH":"2026-04-09T04:23:36.213792","MEAN_MOTION":14.1502047,"ECCENTRICITY":0.00056572,"INCLINATION":71.0032,"RA_OF_ASC_NODE":6.8485,"ARG_OF_PERICENTER":259.5774,"MEAN_ANOMALY":100.4712,"EPHEMERIS_TYPE":0,"CLASSIFICATION_TYPE":"U","NORAD_CAT_ID":23088,"ELEMENT_SET_NO":999,"REV_AT_EPOCH":65040,"BSTAR":-3.478375e-6,"MEAN_MOTION_DOT":-5.4e-7,"MEAN_MOTION_DDOT":0},{"OBJECT_NAME":"SL-16 R/B","OBJECT_ID":"1994-074B","EPOCH":"2026-04-09T00:29:30.329952","MEAN_MOTION":14.79444126,"ECCENTRICITY":0.00079181,"INCLINATION":97.7062,"RA_OF_ASC_NODE":128.6036,"ARG_OF_PERICENTER":117.1969,"MEAN_ANOMALY":272.8631,"EPHEMERIS_TYPE":0,"CLASSIFICATION_TYPE":"U","NORAD_CAT_ID":23343,"ELEMENT_SET_NO":999,"REV_AT_EPOCH":69173,"BSTAR":5.690753e-5,"MEAN_MOTION_DOT":3.76e-6,"MEAN_MOTION_DDOT":0},{"OBJECT_NAME":"SL-16 R/B","OBJECT_ID":"1994-077B","EPOCH":"2026-04-08T22:34:43.948416","MEAN_MOTION":14.1556681,"ECCENTRICITY":0.00013564,"INCLINATION":70.9813,"RA_OF_ASC_NODE":288.8466,"ARG_OF_PERICENTER":178.9375,"MEAN_ANOMALY":181.1751,"EPHEMERIS_TYPE":0,"CLASSIFICATION_TYPE":"U","NORAD_CAT_ID":23405,"ELEMENT_SET_NO":999,"REV_AT_EPOCH":62051,"BSTAR":-4.2513347e-5,"MEAN_MOTION_DOT":-1.31e-6,"MEAN_MOTION_DDOT":0},{"OBJECT_NAME":"ARIANE 40+ R/B","OBJECT_ID":"1995-021B","EPOCH":"2026-04-09T04:18:15.344064","MEAN_MOTION":14.39795809,"ECCENTRICITY":0.00076365,"INCLINATION":98.4447,"RA_OF_ASC_NODE":170.241,"ARG_OF_PERICENTER":57.8865,"MEAN_ANOMALY":327.9474,"EPHEMERIS_TYPE":0,"CLASSIFICATION_TYPE":"U","NORAD_CAT_ID":23561,"ELEMENT_SET_NO":999,"REV_AT_EPOCH":62363,"BSTAR":0.00010413839,"MEAN_MOTION_DOT":2.83e-6,"MEAN_MOTION_DDOT":0},{"OBJECT_NAME":"SL-16 R/B","OBJECT_ID":"1995-058B","EPOCH":"2026-04-09T07:15:44.894016","MEAN_MOTION":14.15499079,"ECCENTRICITY":0.00104587,"INCLINATION":71.0186,"RA_OF_ASC_NODE":115.9852,"ARG_OF_PERICENTER":69.8135,"MEAN_ANOMALY":290.4111,"EPHEMERIS_TYPE":0,"CLASSIFICATION_TYPE":"U","NORAD_CAT_ID":23705,"ELEMENT_SET_NO":999,"REV_AT_EPOCH":57218,"BSTAR":0.00013058083,"MEAN_MOTION_DOT":2.08e-6,"MEAN_MOTION_DDOT":0},{"OBJECT_NAME":"SL-16 R/B","OBJECT_ID":"1996-051B","EPOCH":"2026-04-09T06:21:29.208960","MEAN_MOTION":14.12424291,"ECCENTRICITY":0.00128388,"INCLINATION":70.7579,"RA_OF_ASC_NODE":110.5233,"ARG_OF_PERICENTER":96.9946,"MEAN_ANOMALY":263.2634,"EPHEMERIS_TYPE":0,"CLASSIFICATION_TYPE":"U","NORAD_CAT_ID":24298,"ELEMENT_SET_NO":999,"REV_AT_EPOCH":52596,"BSTAR":5.6018709e-5,"MEAN_MOTION_DOT":5.4e-7,"MEAN_MOTION_DDOT":0},{"OBJECT_NAME":"ORBVIEW 2 (SEASTAR)","OBJECT_ID":"1997-037A","EPOCH":"2026-04-09T07:05:44.961792","MEAN_MOTION":14.35517688,"ECCENTRICITY":0.00017999,"INCLINATION":98.8621,"RA_OF_ASC_NODE":264.427,"ARG_OF_PERICENTER":359.9316,"MEAN_ANOMALY":0.1868,"EPHEMERIS_TYPE":0,"CLASSIFICATION_TYPE":"U","NORAD_CAT_ID":24883,"ELEMENT_SET_NO":999,"REV_AT_EPOCH":51286,"BSTAR":0.00011078297,"MEAN_MOTION_DOT":2.72e-6,"MEAN_MOTION_DDOT":0},{"OBJECT_NAME":"SL-16 R/B","OBJECT_ID":"1998-043G","EPOCH":"2026-04-09T02:41:38.180544","MEAN_MOTION":14.26057145,"ECCENTRICITY":0.00088131,"INCLINATION":98.8302,"RA_OF_ASC_NODE":52.7011,"ARG_OF_PERICENTER":288.7293,"MEAN_ANOMALY":71.2929,"EPHEMERIS_TYPE":0,"CLASSIFICATION_TYPE":"U","NORAD_CAT_ID":25400,"ELEMENT_SET_NO":999,"REV_AT_EPOCH":44332,"BSTAR":4.1209579e-5,"MEAN_MOTION_DOT":5.3e-7,"MEAN_MOTION_DDOT":0},{"OBJECT_NAME":"SL-16 R/B","OBJECT_ID":"1998-045B","EPOCH":"2026-04-09T07:09:49.491936","MEAN_MOTION":14.16195833,"ECCENTRICITY":0.00084937,"INCLINATION":71.0087,"RA_OF_ASC_NODE":117.2056,"ARG_OF_PERICENTER":324.1499,"MEAN_ANOMALY":35.9053,"EPHEMERIS_TYPE":0,"CLASSIFICATION_TYPE":"U","NORAD_CAT_ID":25407,"ELEMENT_SET_NO":999,"REV_AT_EPOCH":43143,"BSTAR":0.00016349624,"MEAN_MOTION_DOT":2.76e-6,"MEAN_MOTION_DDOT":0},{"OBJECT_NAME":"ISS (ZARYA)","OBJECT_ID":"1998-067A","EPOCH":"2026-04-08T23:21:10.273248","MEAN_MOTION":15.48838774,"ECCENTRICITY":0.00063649,"INCLINATION":51.633,"RA_OF_ASC_NODE":282.6294,"ARG_OF_PERICENTER":289.616,"MEAN_ANOMALY":70.4141,"EPHEMERIS_TYPE":0,"CLASSIFICATION_TYPE":"U","NORAD_CAT_ID":25544,"ELEMENT_SET_NO":999,"REV_AT_EPOCH":56102,"BSTAR":0.00013220711,"MEAN_MOTION_DOT":6.802e-5,"MEAN_MOTION_DDOT":0},{"OBJECT_NAME":"CZ-4B R/B","OBJECT_ID":"1999-025C","EPOCH":"2026-04-09T01:34:25.227264","MEAN_MOTION":14.18271662,"ECCENTRICITY":0.00360054,"INCLINATION":98.6563,"RA_OF_ASC_NODE":142.6186,"ARG_OF_PERICENTER":257.0648,"MEAN_ANOMALY":132.552,"EPHEMERIS_TYPE":0,"CLASSIFICATION_TYPE":"U","NORAD_CAT_ID":25732,"ELEMENT_SET_NO":999,"REV_AT_EPOCH":39247,"BSTAR":3.5732631e-5,"MEAN_MOTION_DOT":3.1e-7,"MEAN_MOTION_DDOT":0},{"OBJECT_NAME":"OKEAN-O","OBJECT_ID":"1999-039A","EPOCH":"2026-04-09T03:15:56.916288","MEAN_MOTION":14.80386334,"ECCENTRICITY":9.964e-5,"INCLINATION":97.9381,"RA_OF_ASC_NODE":158.7084,"ARG_OF_PERICENTER":111.3812,"MEAN_ANOMALY":248.7507,"EPHEMERIS_TYPE":0,"CLASSIFICATION_TYPE":"U","NORAD_CAT_ID":25860,"ELEMENT_SET_NO":999,"REV_AT_EPOCH":43889,"BSTAR":7.5837311e-5,"MEAN_MOTION_DOT":5.27e-6,"MEAN_MOTION_DDOT":0},{"OBJECT_NAME":"SL-16 R/B","OBJECT_ID":"1999-039B","EPOCH":"2026-04-09T02:05:48.587424","MEAN_MOTION":14.81775581,"ECCENTRICITY":0.0015417,"INCLINATION":97.9902,"RA_OF_ASC_NODE":158.1286,"ARG_OF_PERICENTER":154.2235,"MEAN_ANOMALY":205.9749,"EPHEMERIS_TYPE":0,"CLASSIFICATION_TYPE":"U","NORAD_CAT_ID":25861,"ELEMENT_SET_NO":999,"REV_AT_EPOCH":44136,"BSTAR":6.7002887e-5,"MEAN_MOTION_DOT":4.76e-6,"MEAN_MOTION_DDOT":0},{"OBJECT_NAME":"DELTA 2 R/B","OBJECT_ID":"1999-041E","EPOCH":"2026-04-09T05:38:54.575232","MEAN_MOTION":14.11908328,"ECCENTRICITY":0.05026176,"INCLINATION":51.7606,"RA_OF_ASC_NODE":179.2558,"ARG_OF_PERICENTER":78.506,"MEAN_ANOMALY":287.1853,"EPHEMERIS_TYPE":0,"CLASSIFICATION_TYPE":"U","NORAD_CAT_ID":25876,"ELEMENT_SET_NO":999,"REV_AT_EPOCH":36734,"BSTAR":0.00016060563,"MEAN_MOTION_DOT":7.51e-6,"MEAN_MOTION_DDOT":0}]
